[{"OBJECT_NAME":"HONGHU 2","OBJECT_ID":"2023-193C","EPOCH":"2026-03-09T23:21:07.139520","MEAN_MOTION":15.21543878,"ECCENTRICITY":0.00399876,"INCLINATION":97.2779,"RA_OF_ASC_NODE":62.3901,"ARG_OF_PERICENTER":264.1736,"MEAN_ANOMALY":95.4941,"EPHEMERIS_TYPE":0,"CLASSIFICATION_TYPE":"U","NORAD_CAT_ID":58555,"ELEMENT_SET_NO":999,"REV_AT_EPOCH":8691,"BSTAR":0.0061775359,"MEAN_MOTION_DOT":0.00144707,"MEAN_MOTION_DDOT":0},{"OBJECT_NAME":"STARLINK-32844","OBJECT_ID":"2025-018Q","EPOCH":"2026-03-09T22:07:10.014816","MEAN_MOTION":15.30210529,"ECCENTRICITY":0.00013263,"INCLINATION":53.1607,"RA_OF_ASC_NODE":308.5294,"ARG_OF_PERICENTER":146.5789,"MEAN_ANOMALY":213.5296,"EPHEMERIS_TYPE":0,"CLASSIFICATION_TYPE":"U","NORAD_CAT_ID":62820,"ELEMENT_SET_NO":999,"REV_AT_EPOCH":6320,"BSTAR":0.00087323671,"MEAN_MOTION_DOT":0.00025601,"MEAN_MOTION_DDOT":0}]
